{
 "generated_at": "2026-06-22T10:39:18Z",
 "sources": [
  {
   "name": "CelesTrak",
   "url": "https://celestrak.org/NORAD/elements/",
   "license": "frei verfügbar; Attribution. Ursprünglich USSPACECOM/Space-Track."
  },
  {
   "name": "GCAT (J. McDowell, planet4589.org)",
   "url": "https://planet4589.org/space/gcat/",
   "license": "CC-BY 4.0"
  }
 ],
 "satellites": [
  {
   "norad": 28376,
   "name": "AURA",
   "intl": "2004-026A",
   "group": "resource",
   "gcat": {
    "class": "C",
    "category": "EOSCI",
    "owner": "GSFC",
    "state": "US"
   },
   "omm": {
    "OBJECT_NAME": "AURA",
    "OBJECT_ID": "2004-026A",
    "EPOCH": "2026-06-20T09:49:55.166592",
    "MEAN_MOTION": 14.61333094,
    "ECCENTRICITY": 0.0001187,
    "INCLINATION": 98.3418,
    "RA_OF_ASC_NODE": 127.8897,
    "ARG_OF_PERICENTER": 77.8282,
    "MEAN_ANOMALY": 282.3052,
    "EPHEMERIS_TYPE": 0,
    "CLASSIFICATION_TYPE": "U",
    "NORAD_CAT_ID": 28376,
    "ELEMENT_SET_NO": 999,
    "REV_AT_EPOCH": 16668,
    "BSTAR": 0.00012442,
    "MEAN_MOTION_DOT": 0.00000566,
    "MEAN_MOTION_DDOT": 0
   }
  },
  {
   "norad": 63772,
   "name": "BIOMASS",
   "intl": "2025-090A",
   "group": "resource",
   "gcat": {
    "class": "C",
    "category": "EOSCI",
    "owner": "ESA",
    "state": "I-ESA"
   },
   "omm": {
    "OBJECT_NAME": "BIOMASS",
    "OBJECT_ID": "2025-090A",
    "EPOCH": "2026-06-20T10:37:21.847872",
    "MEAN_MOTION": 14.67536927,
    "ECCENTRICITY": 0.0001448,
    "INCLINATION": 98.0744,
    "RA_OF_ASC_NODE": 358.7127,
    "ARG_OF_PERICENTER": 95.6178,
    "MEAN_ANOMALY": 264.5192,
    "EPHEMERIS_TYPE": 0,
    "CLASSIFICATION_TYPE": "U",
    "NORAD_CAT_ID": 63772,
    "ELEMENT_SET_NO": 999,
    "REV_AT_EPOCH": 6116,
    "BSTAR": 0.000034623,
    "MEAN_MOTION_DOT": 0.00000148,
    "MEAN_MOTION_DDOT": 0
   }
  },
  {
   "norad": 57693,
   "name": "CAPELLA-11 (ACADIA-1)",
   "intl": "2023-126A",
   "group": "sar",
   "gcat": {
    "class": "B",
    "category": "IMG-R",
    "owner": "CAPSP",
    "state": "US"
   },
   "omm": {
    "OBJECT_NAME": "CAPELLA-11 (ACADIA-1)",
    "OBJECT_ID": "2023-126A",
    "EPOCH": "2026-06-20T09:49:16.632192",
    "MEAN_MOTION": 14.83737376,
    "ECCENTRICITY": 0.0002056,
    "INCLINATION": 53.0058,
    "RA_OF_ASC_NODE": 170.9169,
    "ARG_OF_PERICENTER": 90.948,
    "MEAN_ANOMALY": 269.1734,
    "EPHEMERIS_TYPE": 0,
    "CLASSIFICATION_TYPE": "U",
    "NORAD_CAT_ID": 57693,
    "ELEMENT_SET_NO": 999,
    "REV_AT_EPOCH": 15260,
    "BSTAR": 0.00039126,
    "MEAN_MOTION_DOT": 0.00003039,
    "MEAN_MOTION_DDOT": 0
   }
  },
  {
   "norad": 60419,
   "name": "CAPELLA-13 (ACADIA-3)",
   "intl": "2024-142A",
   "group": "sar",
   "gcat": {
    "class": "B",
    "category": "IMG-R",
    "owner": "CAPSP",
    "state": "US"
   },
   "omm": {
    "OBJECT_NAME": "CAPELLA-13 (ACADIA-3)",
    "OBJECT_ID": "2024-142A",
    "EPOCH": "2026-06-20T02:55:46.825536",
    "MEAN_MOTION": 14.87641893,
    "ECCENTRICITY": 0.00013572,
    "INCLINATION": 53.0052,
    "RA_OF_ASC_NODE": 44.7555,
    "ARG_OF_PERICENTER": 92.6274,
    "MEAN_ANOMALY": 267.4862,
    "EPHEMERIS_TYPE": 0,
    "CLASSIFICATION_TYPE": "U",
    "NORAD_CAT_ID": 60419,
    "ELEMENT_SET_NO": 999,
    "REV_AT_EPOCH": 10084,
    "BSTAR": 0.0004225791,
    "MEAN_MOTION_DOT": 0.00003646,
    "MEAN_MOTION_DDOT": 0
   }
  },
  {
   "norad": 59444,
   "name": "CAPELLA-14 (ACADIA-4)",
   "intl": "2024-066C",
   "group": "sar",
   "gcat": {
    "class": "B",
    "category": "IMG-R",
    "owner": "CAPSP",
    "state": "US"
   },
   "omm": {
    "OBJECT_NAME": "CAPELLA-14 (ACADIA-4)",
    "OBJECT_ID": "2024-066C",
    "EPOCH": "2026-06-19T16:38:38.848416",
    "MEAN_MOTION": 15.1159711,
    "ECCENTRICITY": 0.00007954,
    "INCLINATION": 45.602,
    "RA_OF_ASC_NODE": 241.8694,
    "ARG_OF_PERICENTER": 201.1652,
    "MEAN_ANOMALY": 158.9201,
    "EPHEMERIS_TYPE": 0,
    "CLASSIFICATION_TYPE": "U",
    "NORAD_CAT_ID": 59444,
    "ELEMENT_SET_NO": 999,
    "REV_AT_EPOCH": 11286,
    "BSTAR": 0.00070494877,
    "MEAN_MOTION_DOT": 0.00011922,
    "MEAN_MOTION_DDOT": 0
   }
  },
  {
   "norad": 60544,
   "name": "CAPELLA-15 (ACADIA-5)",
   "intl": "2024-149CE",
   "group": "sar",
   "gcat": {
    "class": "B",
    "category": "IMG-R",
    "owner": "CAPSP",
    "state": "US"
   },
   "omm": {
    "OBJECT_NAME": "CAPELLA-15 (ACADIA-5)",
    "OBJECT_ID": "2024-149CE",
    "EPOCH": "2026-06-20T11:22:13.751328",
    "MEAN_MOTION": 14.92412183,
    "ECCENTRICITY": 0.0004546,
    "INCLINATION": 97.6768,
    "RA_OF_ASC_NODE": 244.2947,
    "ARG_OF_PERICENTER": 70.1549,
    "MEAN_ANOMALY": 290.016,
    "EPHEMERIS_TYPE": 0,
    "CLASSIFICATION_TYPE": "U",
    "NORAD_CAT_ID": 60544,
    "ELEMENT_SET_NO": 999,
    "REV_AT_EPOCH": 10034,
    "BSTAR": 0.00032315,
    "MEAN_MOTION_DOT": 0.00003255,
    "MEAN_MOTION_DDOT": 0
   }
  },
  {
   "norad": 65318,
   "name": "CAPELLA-16 (ACADIA-6)",
   "intl": "2025-188D",
   "group": "sar",
   "gcat": {
    "class": "B",
    "category": "IMG-R",
    "owner": "CAPSP",
    "state": "US"
   },
   "omm": {
    "OBJECT_NAME": "CAPELLA-16 (ACADIA-6)",
    "OBJECT_ID": "2025-188D",
    "EPOCH": "2026-06-20T04:05:59.519328",
    "MEAN_MOTION": 14.93768302,
    "ECCENTRICITY": 0.00036423,
    "INCLINATION": 97.7384,
    "RA_OF_ASC_NODE": 246.2788,
    "ARG_OF_PERICENTER": 205.5591,
    "MEAN_ANOMALY": 154.545,
    "EPHEMERIS_TYPE": 0,
    "CLASSIFICATION_TYPE": "U",
    "NORAD_CAT_ID": 65318,
    "ELEMENT_SET_NO": 999,
    "REV_AT_EPOCH": 4436,
    "BSTAR": 0.00048496409,
    "MEAN_MOTION_DOT": 0.00005085,
    "MEAN_MOTION_DDOT": 0
   }
  },
  {
   "norad": 64583,
   "name": "CAPELLA-17 (ACADIA-7)",
   "intl": "2025-135BH",
   "group": "sar",
   "gcat": {
    "class": "B",
    "category": "IMG-R",
    "owner": "CAPSP",
    "state": "US"
   },
   "omm": {
    "OBJECT_NAME": "CAPELLA-17 (ACADIA-7)",
    "OBJECT_ID": "2025-135BH",
    "EPOCH": "2026-06-19T21:17:40.228224",
    "MEAN_MOTION": 14.9140331,
    "ECCENTRICITY": 0.00039938,
    "INCLINATION": 97.7625,
    "RA_OF_ASC_NODE": 284.4777,
    "ARG_OF_PERICENTER": 348.7906,
    "MEAN_ANOMALY": 11.3223,
    "EPHEMERIS_TYPE": 0,
    "CLASSIFICATION_TYPE": "U",
    "NORAD_CAT_ID": 64583,
    "ELEMENT_SET_NO": 999,
    "REV_AT_EPOCH": 5425,
    "BSTAR": 0.00054888088,
    "MEAN_MOTION_DOT": 0.00005428,
    "MEAN_MOTION_DDOT": 0
   }
  },
  {
   "norad": 67385,
   "name": "CAPELLA-18 (ACADIA-8)",
   "intl": "2026-004Y",
   "group": "sar",
   "gcat": {
    "class": "B",
    "category": "IMG-R",
    "owner": "CAPSP",
    "state": "US"
   },
   "omm": {
    "OBJECT_NAME": "CAPELLA-18 (ACADIA-8)",
    "OBJECT_ID": "2026-004Y",
    "EPOCH": "2026-06-20T10:33:06.624000",
    "MEAN_MOTION": 14.86640916,
    "ECCENTRICITY": 0.0001207,
    "INCLINATION": 97.7993,
    "RA_OF_ASC_NODE": 169.9087,
    "ARG_OF_PERICENTER": 82.6881,
    "MEAN_ANOMALY": 277.4471,
    "EPHEMERIS_TYPE": 0,
    "CLASSIFICATION_TYPE": "U",
    "NORAD_CAT_ID": 67385,
    "ELEMENT_SET_NO": 999,
    "REV_AT_EPOCH": 2376,
    "BSTAR": 0.00033318,
    "MEAN_MOTION_DOT": 0.00002904,
    "MEAN_MOTION_DDOT": 0
   }
  },
  {
   "norad": 67384,
   "name": "CAPELLA-19 (ACADIA-9)",
   "intl": "2026-004X",
   "group": "sar",
   "gcat": {
    "class": "B",
    "category": "IMG-R",
    "owner": "CAPSP",
    "state": "US"
   },
   "omm": {
    "OBJECT_NAME": "CAPELLA-19 (ACADIA-9)",
    "OBJECT_ID": "2026-004X",
    "EPOCH": "2026-06-20T10:18:34.994016",
    "MEAN_MOTION": 14.86637459,
    "ECCENTRICITY": 0.0001446,
    "INCLINATION": 97.8001,
    "RA_OF_ASC_NODE": 169.7482,
    "ARG_OF_PERICENTER": 89.5115,
    "MEAN_ANOMALY": 270.6267,
    "EPHEMERIS_TYPE": 0,
    "CLASSIFICATION_TYPE": "U",
    "NORAD_CAT_ID": 67384,
    "ELEMENT_SET_NO": 999,
    "REV_AT_EPOCH": 2375,
    "BSTAR": 0.00039061,
    "MEAN_MOTION_DOT": 0.00003414,
    "MEAN_MOTION_DDOT": 0
   }
  }
 ]
}
