AURA                    
1 28376U 04026A   26171.40966628  .00000566  00000+0  12442-3 0  9998
2 28376  98.3418 127.8897 0001187  77.8282 282.3052 14.61333094166687
CAPELLA-11 (ACADIA-1)   
1 57693U 23126A   26171.40922028  .00003039  00000+0  39126-3 0  9996
2 57693  53.0058 170.9169 0002056  90.9480 269.1734 14.83737376152604
CAPELLA-14 (ACADIA-4)   
1 59444U 24066C   26170.69350519  .00011922  00000+0  70495-3 0  9990
2 59444  45.6020 241.8694 0000795 201.1652 158.9201 15.11597110112862
CAPELLA-13 (ACADIA-3)   
1 60419U 24142A   26171.12206974  .00003646  00000+0  42258-3 0  9993
2 60419  53.0052  44.7555 0001357  92.6274 267.4862 14.87641893100842
CAPELLA-15 (ACADIA-5)   
1 60544U 24149CE  26171.47377027  .00003255  00000+0  32315-3 0  9994
2 60544  97.6768 244.2947 0004546  70.1549 290.0160 14.92412183100342
BIOMASS                 
1 63772U 25090A   26171.44261398  .00000148  00000+0  34623-4 0  9999
2 63772  98.0744 358.7127 0001448  95.6178 264.5192 14.67536927 61168
CAPELLA-17 (ACADIA-7)   
1 64583U 25135BH  26170.88727116  .00005428  00000+0  54888-3 0  9992
2 64583  97.7625 284.4777 0003993 348.7906  11.3223 14.91403310 54258
CAPELLA-16 (ACADIA-6)   
1 65318U 25188D   26171.17082777  .00005085  00000+0  48496-3 0  9994
2 65318  97.7384 246.2788 0003642 205.5591 154.5450 14.93768302 44366
CAPELLA-19 (ACADIA-9)   
1 67384U 26004X   26171.42957169  .00003414  00000+0  39061-3 0  9993
2 67384  97.8001 169.7482 0001446  89.5115 270.6267 14.86637459 23756
CAPELLA-18 (ACADIA-8)   
1 67385U 26004Y   26171.43966000  .00002904  00000+0  33318-3 0  9991
2 67385  97.7993 169.9087 0001207  82.6881 277.4471 14.86640916 23763
